IRIDIUM 150             
1 43257U 18030J   25144.60726267  .00000029  00000+0  32016-5 0  9992
2 43257  86.3951  92.9233 0002581  85.1071 275.0420 14.34217678374468
IRIDIUM 143             
1 43258U 18030K   25144.58823526  .00000016  00000+0 -13323-5 0  9993
2 43258  86.3953  93.0088 0002786  83.1773 276.9740 14.34217678374392
IRIDIUM 161             
1 43478U 18047C   25144.56966257  .00000365  00000+0  10240-3 0  9991
2 43478  86.4492 250.8066 0002070  98.1403 262.0033 14.43267946369080
IRIDIUM 152             
1 43479U 18047D   25144.35164676 -.00000019  00000+0 -13813-4 0  9992
2 43479  86.3968 250.7584 0002115  99.0460 261.0975 14.34217280366756
IRIDIUM 147             
1 43480U 18047E   25144.56729462  .00000032  00000+0  43358-5 0  9998
2 43480  86.3968 250.6663 0002099  93.0845 267.0591 14.34217722366781
IRIDIUM 110             
1 43481U 18047F   25144.57363677  .00000053  00000+0  12014-4 0  9999
2 43481  86.3970 250.7454 0001830 103.6407 256.4992 14.34217461366774
IRIDIUM 162             
1 43482U 18047G   25144.56336586  .00000358  00000+0  10057-3 0  9990
2 43482  86.4493 250.7049 0002120 103.0907 257.0531 14.43267939369075
IRIDIUM 160             
1 43569U 18061A   25144.24039957  .00000040  00000+0  72394-5 0  9991
2 43569  86.4005 219.2766 0002079  96.9032 263.2400 14.34217713357625
